    AK18V030  2019 09  9.5245  1.339177  0.989558    3.6162  308.7270  164.9539  20230816  15.7  2.0  A/2018 V3                                                MPEC 2022-VC5
    AK18W030  2021 04 13.0723  4.289943  0.993979  313.9589  251.6789  104.8281  20230816  10.7  2.0  A/2018 W3                                                MPEC 2023-M14
    AK19G020  2019 12  8.2528  2.294640  0.994605   82.6078  208.1622  159.2151  20230816  16.5  2.0  A/2019 G2                                                MPEC 2021-P47
    AK19G030  2018 12  4.5572  2.845936  0.834502  161.8959   49.9055  156.8052  20230816  17.1  2.0  A/2019 G3                                                MPEC 2022-VC5
    AK19N020  2019 08 22.7283  1.947461  0.998774  347.1888  276.1411   89.3757  20230816  12.5  2.0  A/2019 N2                                                MPEC 2023-CD8
    AK19O020  2023 04  7.0295  9.682752  0.833164  129.6304   48.2594   93.3105  20230816   9.5  2.0  A/2019 O2                                                MPEC 2023-P65
    AK19O040  2020 02 11.0053  3.645800  0.890600   61.9061  354.9106  115.0842  20230816  15.5  2.0  A/2019 O4                                                MPEC 2021-P47
    AK19Q020  2019 07 22.1850  1.263441  0.978228  176.4116  188.0158  159.0269  20230816  18.0  2.0  A/2019 Q2                                                MPC117072
    AK19T010  2021 01 14.8938  4.281012  0.889650   91.0692    6.9450  120.8739  20230816  13.0  2.0  A/2019 T1                                                MPEC 2023-N01
    AK20A010  2019 12  2.1498  1.666447  0.934955  302.4901  119.1909  149.0363  20230816  18.0  2.0  A/2020 A1                                                MPEC 2023-A50
    AK20B010  2019 12 26.4615  1.740163  0.966175  154.7351  309.9327   18.5217  20230816  21.0  2.0  A/2020 B1                                                MPEC 2020-N08
    AK20H090  2019 12 21.7207  2.572606  0.993046  312.8194  213.1846  137.8795  20230816  18.0  2.0  A/2020 H9                                                MPEC 2022-ED3
    AK20M040  2020 11 24.1369  5.949984  1.001089  104.6252  348.6233  160.1240  20230816  14.5  2.0  A/2020 M4                                                MPEC 2023-N01
    AK21E020  2020 12 10.3079  2.284079  0.989700  342.3645  190.8173  167.4884  20230816  15.0  2.0  A/2021 E2                                                MPEC 2022-UY9
    AK21E040  2022 04 25.1393  4.676140  0.991829   48.2623  171.1690  116.3611  20230816  13.5 22.0  A/2021 E4                                                MPEC 2023-M14
    AK21X020  2022 07  8.0375  2.994525  1.000739  193.2849  228.8221  137.1614  20230816  16.0  2.0  A/2021 X2                                                MPEC 2023-A50
    AK22B030  2022 01 17.4862  3.699035  0.995484  150.6903  286.1833  132.0515  20230816  16.5  2.0  A/2022 B3                                                MPEC 2022-YB4
    AK23H040  2023 08  8.8007  2.119309  0.984986   64.8961  230.8135   76.6188  20230816  18.0 22.0  A/2023 H4                                                MPEC 2023-N01
    CJ90K010  1990 11  8.7318  0.937207  1.000936  242.8691  139.7969   32.0429  20230816   9.0  4.0  C/1990 K1 (Levy)                                         MPC 20602
    CJ95O010  1997 03 29.4454  0.890902  0.994965  130.4200  282.3195   89.4864  20230816  -2.0  4.0  C/1995 O1 (Hale-Bopp)                                    MPEC 2022-S20
    CK02V94Q  2006 02  2.3435  6.788169  0.963225   99.8978   35.1640   70.7122  20230816   9.5  2.0  C/2002 VQ94 (LINEAR)                                     MPC 75007
    CK07D010  2007 06  8.1744  8.766238  0.992357  339.7180  171.2016   41.5028  20230816   3.5  4.0  C/2007 D1 (LINEAR)                                       MPC 84315
    CK09G010  2009 04 19.4192  1.138072  0.997589  175.5335  120.6614  108.3128  20230816   9.0  4.0  C/2009 G1 (STEREO)                                       MPC 66466
    CK10U030  2019 02 25.6997  8.438984  0.997491   88.0373   42.9880   55.5656  20230816   1.0  4.0  C/2010 U3 (Boattini)                                     MPEC 2023-J95
    CK11K36P  2016 05 29.0179  4.900888  0.875791  180.9458  173.2729   18.9860  20230816   4.5  4.0  C/2011 KP36 (Spacewatch)                                 MPEC 2023-J95
    CK12S010  2013 12  1.7958  0.014113  1.000019  346.1928  295.4179   62.4540  20230816   8.5  3.2  C/2012 S1 (ISON)                                         MPEC 2022-F14
    CK14F030  2021 05 29.0223  5.715424  0.605369    4.8224  326.1498    6.5258  20230816   6.0  4.0  C/2014 F3 (Sheppard-Trujillo)                            MPEC 2022-WD2
    CK14Od2G  2021 12 14.9356  9.972261  0.186500  254.6004  145.8114    9.0329  20230816   6.0  4.0  C/2014 OG392 (PANSTARRS)                                 MPEC 2023-J29
    CK14UR1N  2031 01 20.0809 10.951390  1.002088  326.1814  189.9016   95.4315  20230816   2.5  3.2  C/2014 UN271 (Bernardinelli-Bernstein)                   MPEC 2023-P25
    CK15X01Y  2018 04 25.1061  7.929134  0.999141  196.1408  281.5498  148.8525  20230816   5.5  4.0  C/2015 XY1 (Lemmon)                                      MPEC 2022-OB6
    CK16M010  2018 08 10.3237  2.214051  0.999863  209.9273   92.2755   90.8237  20230816   5.0  4.0  C/2016 M1 (PANSTARRS)                                    MPEC 2022-ED3
    CK16N060  2018 07 17.2246  2.659952  0.997135  162.5661  298.8729  105.8754  20230816   7.0  4.0  C/2016 N6 (PANSTARRS)                                    MPEC 2021-P47
    CK16Q020  2021 05 12.4261  7.081615  1.003243   84.5584  322.3204  109.3733  20230816   6.0  4.0  C/2016 Q2 (PANSTARRS)                                    MPEC 2023-P65
    CK16Q040  2018 02  2.1672  7.101261  0.583480   99.8196  271.2931    7.2427  20230816   7.0  4.0  C/2016 Q4 (Kowalski)                                     MPEC 2023-J95
    CK16R020  2018 05  9.5670  2.594901  0.994653   33.0902   80.5010   58.3638  20230816   7.0  4.0  C/2016 R2 (PANSTARRS)                                    MPEC 2021-N06
    CK16X010  2019 04 28.2398  7.555620  0.994996  224.4965  256.3229   26.4630  20230816   6.0  4.0  C/2016 X1 (Lemmon)                                       MPEC 2021-P47
    CK17B030  2019 01 31.8444  3.931771  0.999866  284.8352    2.1804   54.1650  20230816   6.0  4.0  C/2017 B3 (LINEAR)                                       MPEC 2022-OB6
    CK17K020  2022 12 19.6864  1.797022  1.000695  236.2057   88.2352   87.5641  20230816   1.5  4.0  C/2017 K2 (PANSTARRS)                                    MPEC 2023-P65
    CK17K050  2020 03 27.1931  7.684232  1.004851  172.0626  102.4039   82.2655  20230816   5.0  4.0  C/2017 K5 (PANSTARRS)                                    MPEC 2021-P47
    CK17M040  2019 01 17.9556  3.248751  1.001044  167.5731   65.9977  105.6310  20230816   6.0  4.0  C/2017 M4 (ATLAS)                                        MPEC 2022-OB6
    CK17M050  2018 06  3.5253  6.009403  1.004499   92.8899  216.2876   15.8587  20230816   6.5  4.0  C/2017 M5 (TOTAS)                                        MPC118841
    CK17S030  2018 08 17.0039  0.203705  1.000096  255.7526  171.2060   99.1532  20230816  12.9  4.0  C/2017 S3 (PANSTARRS)                                    MPC114599
    CK17T020  2020 05  4.9246  1.611769  0.998927   92.8812   64.4326   57.2797  20230816   5.0  4.0  C/2017 T2 (PANSTARRS)                                    MPEC 2022-YN2
    CK17T030  2018 07 19.6475  0.821744  0.999377  246.7769  230.2596   88.2923  20230816  10.0  4.0  C/2017 T3 (ATLAS)                                        MPC114600
    CK17U040  2018 09 21.2430  7.727655  0.998795  158.9881  245.9010  158.1999  20230816   7.0  4.0  C/2017 U4 (PANSTARRS)                                    MPEC 2023-CD7
    CK17U070  2019 09 15.6661  6.428451  1.002144  326.4526  276.2820  142.6223  20230816   8.3  2.0  C/2017 U7 (PANSTARRS)                                    MPEC 2023-A50
    CK17X010  2018 06 13.8364  4.659826  0.849481  283.0741  251.1691   31.3470  20230816  10.0  4.0  C/2017 X1 (PANSTARRS)                                    MPEC 2021-R75
    CK17Y020  2020 11  5.1359  4.631527  1.001557  147.9296   66.0227  128.4434  20230816  15.0  4.0  C/2017 Y2 (PANSTARRS)                                    MPEC 2022-QD9
    CK18A030  2019 01 10.2641  3.281021  0.990731   86.3641  194.2983  139.5446  20230816   8.5  4.0  C/2018 A3 (ATLAS)                                        MPEC 2021-P47
    CK18A040  2018 05 20.0808  2.387405  0.804107  355.9572   97.5648    3.1516  20230816  14.0  4.0  C/2018 A4 (PANSTARRS)                                    MPEC 2023-J29
    CK18A060  2019 07 11.0633  3.018436  0.799175  264.3347  340.3912   77.0749  20230816   9.0  4.0  C/2018 A6 (Gibbs)                                        MPEC 2022-ST7
    CK18C020  2018 05 30.8497  1.959721  0.999741  133.9426   91.3020   34.4629  20230816  13.0  4.0  C/2018 C2 (Lemmon)                                       MPC114601
    CK18D04O  2019 08 16.6171  2.415553  0.904660  176.3228  251.4310  160.4438  20230816  11.0  4.0  C/2018 DO4 (Lemmon)                                      MPEC 2022-M88
    CK18E010  2018 04 18.4813  2.689831  0.950087  299.2750  146.7990   72.4903  20230816  10.5  4.0  C/2018 E1 (ATLAS)                                        MPC114602
    CK18E04N  2018 06  1.6979  1.460785  0.918342   35.0043  136.1318   81.9787  20230816  15.0  4.0  C/2018 EN4 (NEOWISE)                                     MPC114602
    CK18E09F  2018 05 20.5722  1.563395  0.996418   72.6400  172.5757   84.6486  20230816  18.0  2.0  C/2018 EF9 (Lemmon)                                      MPEC 2023-CD7
    CK18F010  2018 12 11.3452  2.997254  0.987133   71.5645  177.2796   46.0893  20230816  11.5  4.0  C/2018 F1 (Grauer)                                       MPEC 2021-R75
    CK18F040  2019 12  2.5984  3.444831  0.999112  263.2124   26.5153   78.0831  20230816  11.0  6.0  C/2018 F4 (PANSTARRS)                                    MPEC 2023-A50
